Name,Address,Dong,Phone,Link,Owner_Name,Latitude,Longitude,Detail_Url,Keyword
"온에스테틱 선릉점피부,체형관리",,,,,,0,0,https://m.place.naver.com/place/1503740004,서울 강남구 피부관리샵
"프리미엄스파엘 강남본점피부,체형관리",,,,,,0,0,https://m.place.naver.com/place/1152813933,서울 강남구 피부관리샵
"카스탈리아 마사지피부,체형관리
알림받기",,,,,,0,0,https://m.place.naver.com/place/2017027527,서울 강남구 피부관리샵
"나비효과에스테틱 강남본점피부,체형관리",,,,,,0,0,https://m.place.naver.com/place/1554341564/photo,서울 강남구 피부관리샵
"끌리메 신사본점피부,체형관리",,,,,,0,0,https://m.place.naver.com/place/31498055/photo,서울 강남구 피부관리샵
"미르테 바이 혜정피부,체형관리",,,,,,0,0,https://m.place.naver.com/place/31420339/photo,서울 강남구 피부관리샵
"러쉬스파 압구정점피부,체형관리",,,,,,0,0,https://m.place.naver.com/place/1884676114/photo,서울 강남구 피부관리샵
"구동명쾌유마사지 압구정점피부,체형관리
알림받기",,,,,,0,0,https://m.place.naver.com/place/1348399169,서울 강남구 피부관리샵
"온에스테틱 압구정점피부,체형관리",,,,,,0,0,https://m.place.naver.com/place/2043741767,서울 강남구 피부관리샵
"하이필스킨 강남선릉점피부,체형관리
알림받기",,,,,,0,0,https://m.place.naver.com/place/2055780371,서울 강남구 피부관리샵
"더록시 청담점피부,체형관리
알림받기",,,,,,0,0,https://m.place.naver.com/place/1125319600,서울 강남구 피부관리샵
"프롬미 강남본점피부,체형관리",,,,,,0,0,https://m.place.naver.com/place/1669894270/photo,서울 강남구 피부관리샵
"온에스테틱 선릉점피부,체형관리",,,,,,0,0,https://m.place.naver.com/place/1503740004/photo,서울 강남구 피부관리샵
"더록시 청담점피부,체형관리",,,,,,0,0,https://m.place.naver.com/place/1125319600/photo,서울 강남구 피부관리샵
"구동명쾌유마사지 강남본점피부,체형관리",,,,,,0,0,https://m.place.naver.com/place/35188045/photo,서울 강남구 피부관리샵
"어메이징빅토리아 강남라운지피부,체형관리",,,,,,0,0,https://m.place.naver.com/place/1013707552/photo,서울 강남구 피부관리샵
"미니쉬발몽스파 압구정로데오점피부,체형관리",,,,,,0,0,https://m.place.naver.com/place/1764301426/photo,서울 강남구 피부관리샵
더풋샵마사지 압구정역점발관리,,,,,,0,0,https://m.place.naver.com/place/12917508,서울 강남구 피부관리샵
"더록시 논현점피부,체형관리",,,,,,0,0,https://m.place.naver.com/place/1177278371/photo,서울 강남구 피부관리샵
"힐링포미아로마피부,체형관리
알림받기",,,,,,0,0,https://m.place.naver.com/place/1276936745,서울 강남구 피부관리샵
"에스테틱공간피부,체형관리",,,,,,0,0,https://m.place.naver.com/place/1185862964,서울 강남구 피부관리샵
"가인미가 강남청담역점피부,체형관리",,,,,,0,0,https://m.place.naver.com/place/1962810115/photo,서울 강남구 피부관리샵
네이버 플레이스,,,,,,0,0,https://m.place.naver.com/place/31498055,서울 강남구 피부관리샵
네이버 플레이스,,,,,,0,0,https://m.place.naver.com/place/1962810115,서울 강남구 피부관리샵
네이버 플레이스,,,,,,0,0,https://m.place.naver.com/place/21811230,서울 강남구 피부관리샵
네이버 플레이스,,,,,,0,0,https://m.place.naver.com/place/38530688/photo,서울 강남구 피부관리샵
네이버 플레이스,,,,,,0,0,https://m.place.naver.com/place/1884676114,서울 강남구 피부관리샵
